CCSDS_OMM_VERS = 2.0
CREATION_DATE  = 
ORIGINATOR     = 

OBJECT_NAME    = STARLINK-35765
OBJECT_ID      = 2025-294M
CENTER_NAME    = EARTH
REF_FRAME      = TEME
TIME_SYSTEM    = UTC
MEAN_ELEMENT_THEORY = SGP/SGP4

EPOCH          = 2026-01-09T00:00:02.998944
MEAN_MOTION    = 15.43044711
ECCENTRICITY   = .0001031
INCLINATION    = 43.0003
RA_OF_ASC_NODE = 19.0145
ARG_OF_PERICENTER = 286.1810
MEAN_ANOMALY   = 159.9250

EPHEMERIS_TYPE = 0
CLASSIFICATION_TYPE = U
NORAD_CAT_ID   = 67041
ELEMENT_SET_NO = 999
REV_AT_EPOCH   = 447
BSTAR          = -.69954E-1
MEAN_MOTION_DOT = -.2811145E-1
MEAN_MOTION_DDOT = 0

CCSDS_OMM_VERS = 2.0
CREATION_DATE  = 
ORIGINATOR     = 

OBJECT_NAME    = STARLINK-35773
OBJECT_ID      = 2025-294N
CENTER_NAME    = EARTH
REF_FRAME      = TEME
TIME_SYSTEM    = UTC
MEAN_ELEMENT_THEORY = SGP/SGP4

EPOCH          = 2026-01-08T08:48:57.916800
MEAN_MOTION    = 15.40724236
ECCENTRICITY   = .00006306
INCLINATION    = 43.0019
RA_OF_ASC_NODE = 23.0763
ARG_OF_PERICENTER = 232.6342
MEAN_ANOMALY   = 127.4457

EPHEMERIS_TYPE = 0
CLASSIFICATION_TYPE = U
NORAD_CAT_ID   = 67042
ELEMENT_SET_NO = 999
REV_AT_EPOCH   = 552
BSTAR          = .55027046E-3
MEAN_MOTION_DOT = .22769E-3
MEAN_MOTION_DDOT = 0

CCSDS_OMM_VERS = 2.0
CREATION_DATE  = 
ORIGINATOR     = 

OBJECT_NAME    = STARLINK-35901
OBJECT_ID      = 2025-294P
CENTER_NAME    = EARTH
REF_FRAME      = TEME
TIME_SYSTEM    = UTC
MEAN_ELEMENT_THEORY = SGP/SGP4

EPOCH          = 2026-01-09T00:00:02.998944
MEAN_MOTION    = 15.40646015
ECCENTRICITY   = .0001024
INCLINATION    = 43.0008
RA_OF_ASC_NODE = 19.2211
ARG_OF_PERICENTER = 270.6442
MEAN_ANOMALY   = 89.9903

EPHEMERIS_TYPE = 0
CLASSIFICATION_TYPE = U
NORAD_CAT_ID   = 67043
ELEMENT_SET_NO = 999
REV_AT_EPOCH   = 466
BSTAR          = .14343E-2
MEAN_MOTION_DOT = .59976E-3
MEAN_MOTION_DDOT = 0

CCSDS_OMM_VERS = 2.0
CREATION_DATE  = 
ORIGINATOR     = 

OBJECT_NAME    = STARLINK-35884
OBJECT_ID      = 2025-294Q
CENTER_NAME    = EARTH
REF_FRAME      = TEME
TIME_SYSTEM    = UTC
MEAN_ELEMENT_THEORY = SGP/SGP4

EPOCH          = 2026-01-08T09:11:32.612640
MEAN_MOTION    = 15.40737377
ECCENTRICITY   = .00007158
INCLINATION    = 43.0018
RA_OF_ASC_NODE = 23.1981
ARG_OF_PERICENTER = 266.6493
MEAN_ANOMALY   = 93.4282

EPHEMERIS_TYPE = 0
CLASSIFICATION_TYPE = U
NORAD_CAT_ID   = 67044
ELEMENT_SET_NO = 999
REV_AT_EPOCH   = 552
BSTAR          = .91552632E-3
MEAN_MOTION_DOT = .38179E-3
MEAN_MOTION_DDOT = 0

CCSDS_OMM_VERS = 2.0
CREATION_DATE  = 
ORIGINATOR     = 

OBJECT_NAME    = STARLINK-35891
OBJECT_ID      = 2025-294R
CENTER_NAME    = EARTH
REF_FRAME      = TEME
TIME_SYSTEM    = UTC
MEAN_ELEMENT_THEORY = SGP/SGP4

EPOCH          = 2026-01-08T14:00:01.999872
MEAN_MOTION    = 15.40663801
ECCENTRICITY   = .00008924
INCLINATION    = 43.0006
RA_OF_ASC_NODE = 21.5320
ARG_OF_PERICENTER = 279.1969
MEAN_ANOMALY   = 324.8663

EPHEMERIS_TYPE = 0
CLASSIFICATION_TYPE = U
NORAD_CAT_ID   = 67045
ELEMENT_SET_NO = 999
REV_AT_EPOCH   = 451
BSTAR          = .13102929E-2
MEAN_MOTION_DOT = .54758E-3
MEAN_MOTION_DDOT = 0

CCSDS_OMM_VERS = 2.0
CREATION_DATE  = 
ORIGINATOR     = 

OBJECT_NAME    = STARLINK-35721
OBJECT_ID      = 2025-294S
CENTER_NAME    = EARTH
REF_FRAME      = TEME
TIME_SYSTEM    = UTC
MEAN_ELEMENT_THEORY = SGP/SGP4

EPOCH          = 2026-01-08T14:00:01.999872
MEAN_MOTION    = 15.40655136
ECCENTRICITY   = .00016105
INCLINATION    = 43.0004
RA_OF_ASC_NODE = 21.4707
ARG_OF_PERICENTER = 280.4560
MEAN_ANOMALY   = 348.4975

EPHEMERIS_TYPE = 0
CLASSIFICATION_TYPE = U
NORAD_CAT_ID   = 67046
ELEMENT_SET_NO = 999
REV_AT_EPOCH   = 460
BSTAR          = .13944032E-2
MEAN_MOTION_DOT = .58304E-3
MEAN_MOTION_DDOT = 0

CCSDS_OMM_VERS = 2.0
CREATION_DATE  = 
ORIGINATOR     = 

OBJECT_NAME    = STARLINK-35779
OBJECT_ID      = 2025-294T
CENTER_NAME    = EARTH
REF_FRAME      = TEME
TIME_SYSTEM    = UTC
MEAN_ELEMENT_THEORY = SGP/SGP4

EPOCH          = 2026-01-08T14:00:01.999872
MEAN_MOTION    = 15.40653294
ECCENTRICITY   = .00012259
INCLINATION    = 43.0011
RA_OF_ASC_NODE = 21.8036
ARG_OF_PERICENTER = 264.0094
MEAN_ANOMALY   = 228.1247

EPHEMERIS_TYPE = 0
CLASSIFICATION_TYPE = U
NORAD_CAT_ID   = 67047
ELEMENT_SET_NO = 999
REV_AT_EPOCH   = 440
BSTAR          = .14782734E-2
MEAN_MOTION_DOT = .61853E-3
MEAN_MOTION_DDOT = 0

CCSDS_OMM_VERS = 2.0
CREATION_DATE  = 
ORIGINATOR     = 

OBJECT_NAME    = STARLINK-35905
OBJECT_ID      = 2025-294U
CENTER_NAME    = EARTH
REF_FRAME      = TEME
TIME_SYSTEM    = UTC
MEAN_ELEMENT_THEORY = SGP/SGP4

EPOCH          = 2026-01-08T08:52:11.445024
MEAN_MOTION    = 15.40741319
ECCENTRICITY   = .00009487
INCLINATION    = 43.0010
RA_OF_ASC_NODE = 23.0947
ARG_OF_PERICENTER = 281.3537
MEAN_ANOMALY   = 78.7213

EPHEMERIS_TYPE = 0
CLASSIFICATION_TYPE = U
NORAD_CAT_ID   = 67048
ELEMENT_SET_NO = 999
REV_AT_EPOCH   = 552
BSTAR          = .1375118E-2
MEAN_MOTION_DOT = .57652E-3
MEAN_MOTION_DDOT = 0

CCSDS_OMM_VERS = 2.0
CREATION_DATE  = 
ORIGINATOR     = 

OBJECT_NAME    = STARLINK-35877
OBJECT_ID      = 2025-294V
CENTER_NAME    = EARTH
REF_FRAME      = TEME
TIME_SYSTEM    = UTC
MEAN_ELEMENT_THEORY = SGP/SGP4

EPOCH          = 2026-01-08T10:35:14.497728
MEAN_MOTION    = 15.40675545
ECCENTRICITY   = .0001532
INCLINATION    = 43.0021
RA_OF_ASC_NODE = 22.7726
ARG_OF_PERICENTER = 270.6946
MEAN_ANOMALY   = 89.3735

EPHEMERIS_TYPE = 0
CLASSIFICATION_TYPE = U
NORAD_CAT_ID   = 67049
ELEMENT_SET_NO = 999
REV_AT_EPOCH   = 553
BSTAR          = .18282154E-2
MEAN_MOTION_DOT = .76775E-3
MEAN_MOTION_DDOT = 0

CCSDS_OMM_VERS = 2.0
CREATION_DATE  = 
ORIGINATOR     = 

OBJECT_NAME    = STARLINK-36078
OBJECT_ID      = 2025-294W
CENTER_NAME    = EARTH
REF_FRAME      = TEME
TIME_SYSTEM    = UTC
MEAN_ELEMENT_THEORY = SGP/SGP4

EPOCH          = 2026-01-08T11:04:47.094816
MEAN_MOTION    = 15.50348952
ECCENTRICITY   = .00059491
INCLINATION    = 43.0015
RA_OF_ASC_NODE = 22.0575
ARG_OF_PERICENTER = 241.9341
MEAN_ANOMALY   = 118.0918

EPHEMERIS_TYPE = 0
CLASSIFICATION_TYPE = U
NORAD_CAT_ID   = 67050
ELEMENT_SET_NO = 999
REV_AT_EPOCH   = 554
BSTAR          = .46331619E-2
MEAN_MOTION_DOT = .279191E-2
MEAN_MOTION_DDOT = 0

CCSDS_OMM_VERS = 2.0
CREATION_DATE  = 
ORIGINATOR     = 

OBJECT_NAME    = STARLINK-35706
OBJECT_ID      = 2025-294X
CENTER_NAME    = EARTH
REF_FRAME      = TEME
TIME_SYSTEM    = UTC
MEAN_ELEMENT_THEORY = SGP/SGP4

EPOCH          = 2026-01-08T14:00:01.999872
MEAN_MOTION    = 15.43574623
ECCENTRICITY   = .0000553
INCLINATION    = 43.0010
RA_OF_ASC_NODE = 21.3920
ARG_OF_PERICENTER = 283.8629
MEAN_ANOMALY   = 18.8938

EPHEMERIS_TYPE = 0
CLASSIFICATION_TYPE = U
NORAD_CAT_ID   = 67051
ELEMENT_SET_NO = 999
REV_AT_EPOCH   = 460
BSTAR          = -.4302473E-1
MEAN_MOTION_DOT = -.1786401E-1
MEAN_MOTION_DDOT = 0

CCSDS_OMM_VERS = 2.0
CREATION_DATE  = 
ORIGINATOR     = 

OBJECT_NAME    = STARLINK-35720
OBJECT_ID      = 2025-294Y
CENTER_NAME    = EARTH
REF_FRAME      = TEME
TIME_SYSTEM    = UTC
MEAN_ELEMENT_THEORY = SGP/SGP4

EPOCH          = 2026-01-07T21:09:02.329344
MEAN_MOTION    = 15.50669216
ECCENTRICITY   = .0000904
INCLINATION    = 42.9992
RA_OF_ASC_NODE = 25.4445
ARG_OF_PERICENTER = 281.8375
MEAN_ANOMALY   = 78.2383

EPHEMERIS_TYPE = 0
CLASSIFICATION_TYPE = U
NORAD_CAT_ID   = 67052
ELEMENT_SET_NO = 999
REV_AT_EPOCH   = 545
BSTAR          = .20043E-2
MEAN_MOTION_DOT = .119434E-2
MEAN_MOTION_DDOT = 0

