STARLINK-35765          
1 67041U 25294M   26009.00003471 -.02811145  00000+0 -69954-1 0  9999
2 67041  43.0003  19.0145 0001031 286.1810 159.9250 15.43044711  4477
STARLINK-35773          
1 67042U 25294N   26008.36733700  .00022769  00000+0  55027-3 0  9993
2 67042  43.0019  23.0763 0000630 232.6342 127.4457 15.40724236  5526
STARLINK-35901          
1 67043U 25294P   26009.00003471  .00059976  00000+0  14343-2 0  9996
2 67043  43.0008  19.2211 0001024 270.6442  89.9903 15.40646015  4661
STARLINK-35884          
1 67044U 25294Q   26008.38301635  .00038179  00000+0  91553-3 0  9991
2 67044  43.0018  23.1981 0000715 266.6493  93.4282 15.40737377  5526
STARLINK-35891          
1 67045U 25294R   26008.58335648  .00054758  00000+0  13103-2 0  9990
2 67045  43.0006  21.5320 0000892 279.1969 324.8663 15.40663801  4518
STARLINK-35721          
1 67046U 25294S   26008.58335648  .00058304  00000+0  13944-2 0  9995
2 67046  43.0004  21.4707 0001610 280.4560 348.4975 15.40655136  4606
STARLINK-35779          
1 67047U 25294T   26008.58335648  .00061853  00000+0  14783-2 0  9991
2 67047  43.0011  21.8036 0001225 264.0094 228.1247 15.40653294  4403
STARLINK-35905          
1 67048U 25294U   26008.36957691  .00057652  00000+0  13751-2 0  9992
2 67048  43.0010  23.0947 0000948 281.3537  78.7213 15.40741319  5525
STARLINK-35877          
1 67049U 25294V   26008.44114002  .00076775  00000+0  18282-2 0  9994
2 67049  43.0021  22.7726 0001532 270.6946  89.3735 15.40675545  5539
STARLINK-36078          
1 67050U 25294W   26008.46165619  .00279191  00000+0  46332-2 0  9992
2 67050  43.0015  22.0575 0005949 241.9341 118.0918 15.50348952  5549
STARLINK-35706          
1 67051U 25294X   26008.58335648 -.01786401  00000+0 -43025-1 0  9992
2 67051  43.0010  21.3920 0000553 283.8629  18.8938 15.43574623  4604
STARLINK-35720          
1 67052U 25294Y   26007.88127696  .00119434  00000+0  20043-2 0  9996
2 67052  42.9992  25.4445 0000904 281.8375  78.2383 15.50669216  5454
